TELKOM 3S               
1 41944U 17007A   25137.44782046 -.00000351  00000+0  00000+0 0  9998
2 41944   0.0144 320.4432 0002515  97.8578  96.3234  1.00272673 30242
INTELSAT 32E (IS-32E)   
1 41945U 17007B   25136.72673459 -.00000256  00000+0  00000+0 0  9990
2 41945   0.0165  41.9347 0000734 319.5713  91.6278  1.00270724 30276
ECHOSTAR 23             
1 42070U 17014A   25136.89109206 -.00000044  00000+0  00000+0 0  9995
2 42070   0.0126 305.3889 0001821 111.6776  28.6750  1.00269801 29940
WGS F9 (USA 275)        
1 42075U 17016A   25136.87573729 -.00000083  00000+0  00000+0 0  9998
2 42075   0.0093 292.6730 0000286  86.8561 158.5681  1.00272029 29920
SES-10                  
1 42432U 17017A   25137.31364222 -.00000260  00000+0  00000+0 0  9999
2 42432   0.0157   0.3746 0002629  67.5214 213.3845  1.00269156 29753
CHINASAT 16 (SJ-13)     
1 42662U 17018A   25137.35461362 -.00000340  00000+0  00000+0 0  9991
2 42662   0.0513 101.8663 0004240 140.6514 231.0183  1.00276789 29769
KOREASAT 7              
1 42691U 17023A   25137.22545027 -.00000349  00000+0  00000+0 0  9995
2 42691   0.0299  21.2136 0001277  28.8536  22.1638  1.00271966 29474
SGDC                    
1 42692U 17023B   25136.55658501 -.00000236  00000+0  00000+0 0  9998
2 42692   0.0512  91.1324 0002908 344.3390 284.5729  1.00271325 29478
GSAT-9                  
1 42695U 17024A   25136.68320751 -.00000274  00000+0  00000+0 0  9991
2 42695   0.0776 258.5421 0002073 138.9186 180.4928  1.00271845 29329
INMARSAT 5-F4           
1 42698U 17025A   25136.81787495  .00000088  00000+0  00000+0 0  9994
2 42698   0.0153 332.3317 0000381 112.7779 140.6323  1.00268960 29280
SES-15                  
1 42709U 17026A   25136.94532730  .00000073  00000+0  00000+0 0  9996
2 42709   0.0327  34.7641 0000922 348.1626  63.1321  1.00270604  3474
QZS-2 (MICHIBIKI-2)     
1 42738U 17028A   25136.62266889 -.00000173  00000+0  00000+0 0  9996
2 42738  40.0425 248.9453 0762350 268.8957  80.5753  1.00292661  3642
VIASAT-2                
1 42740U 17029A   25137.31878306 -.00000253  00000+0  00000+0 0  9999
2 42740   0.0134 283.1085 0000284 180.4531 176.5757  1.00269604 29209
EUTELSAT 172B           
1 42741U 17029B   25136.40824463  .00000008  00000+0  00000+0 0  9991
2 42741   0.0117 228.9691 0000384 247.0546  77.3243  1.00271103 29753
GSAT-19                 
1 42747U 17031A   25136.73586360  .00000138  00000+0  00000+0 0  9991
2 42747   0.0232 264.5767 0005691 172.1617 110.7586  1.00273065 29155
ECHOSTAR 21             
1 42749U 17032A   25136.81850441  .00000078  00000+0  00000+0 0  9990
2 42749   2.0317 332.2412 0002632  75.3367 132.1294  1.00272999 29127
BULGARIASAT-1           
1 42801U 17038A   25137.40114240  .00000023  00000+0  00000+0 0  9991
2 42801   0.0130 325.8778 0003540 108.5117 307.2640  1.00270307 28941
HELLAS-SAT 3            
1 42814U 17040A   25136.88584905  .00000165  00000+0  00000+0 0  9995
2 42814   0.0479  50.5822 0005268 351.9650 190.2072  1.00269397 28832
GSAT-17                 
1 42815U 17040B   25137.11078932 -.00000245  00000+0  00000+0 0  9991
2 42815   0.0456 111.8929 0002241 214.5537  41.9978  1.00270915 28906
INTELSAT 35E (IS-35E)   
1 42818U 17041A   25136.87121951 -.00000225  00000+0  00000+0 0  9995
2 42818   0.0143 279.6370 0002221 139.0532  95.2876  1.00269988 28849
COSMOS 2520             
1 42907U 17046A   25137.24400190  .00000149  00000+0  00000+0 0  9990
2 42907   0.0257 101.8527 0000439 343.4961 282.6717  1.00270503 28425
TDRS 13                 
1 42915U 17047A   25136.91630806 -.00000090  00000+0  00000+0 0  9998
2 42915   3.4569 352.5551 0015529 106.6124  93.9735  1.00271640 28375
QZS-3 (MICHIBIKI-3)     
1 42917U 17048A   25137.18876166 -.00000335  00000+0  00000+0 0  9994
2 42917   0.0559 174.8574 0003611 249.4849   5.7778  1.00269033 28391
AMAZONAS 5              
1 42934U 17053A   25137.31364222 -.00000270  00000+0  00000+0 0  9997
2 42934   0.0351 316.9694 0003532  62.3319 267.8767  1.00270657 28155
ASIASAT 9               
1 42942U 17057A   25137.22545027 -.00000347  00000+0  00000+0 0  9999
2 42942   0.0183 316.8930 0002366 110.4238  11.1425  1.00269915 27973
INTELSAT 37E (IS-37E)   
1 42950U 17059A   25137.16009112 -.00000128  00000+0  00000+0 0  9990
2 42950   0.0178 299.8708 0002537 126.9534 207.9353  1.00271605 28076
BSAT-4A                 
1 42951U 17059B   25137.08169762 -.00000337  00000+0  00000+0 0  9992
2 42951   0.0467  34.9220 0004656  21.8014 317.5709  1.00269679 27985
QZS-4 (MICHIBIKI-4)     
1 42965U 17062A   25136.36432378 -.00000307  00000+0  00000+0 0  9994
2 42965  40.3446 348.5489 0745738 271.0251 244.6540  1.00261359 27834
SES-11 (ECHOSTAR 105)   
1 42967U 17063A   25137.14284816 -.00000077  00000+0  00000+0 0  9990
2 42967   0.0301  42.6505 0002870  16.2861 122.6376  1.00271837 27833
KOREASAT 5A             
1 42984U 17067A   25136.90053843 -.00000346  00000+0  00000+0 0  9999
2 42984   0.0091 321.1222 0001392  92.4829 258.5962  1.00273518 27554
ALCOMSAT 1              
1 43039U 17078A   25136.87313088 -.00000173  00000+0  00000+0 0  9997
2 43039   0.0525 119.9476 0001017 296.2317 108.1431  1.00273823 27327
SBIRS GEO-3 (USA 282)   
1 43162U 18009A   25137.54258858  .00000139  00000+0  00000+0 0  9998
2 43162   2.1046 351.3871 0002228  62.5869 217.4565  1.00272412 26871
AL YAH 3                
1 43174U 18012A   25137.09767131 -.00000142  00000+0  00000+0 0  9999
2 43174   0.5261  88.2210 0004487 327.4479 194.4549  1.00271623 26865
SES-14                  
1 43175U 18012B   25136.86869999 -.00000265  00000+0  00000+0 0  9995
2 43175   0.0233  20.9752 0001132  37.4831  81.6084  1.00271629  3051
GOES 17                 
1 43226U 18022A   25137.20669628 -.00000080  00000+0  00000+0 0  9994
2 43226   0.0104 264.9392 0003035 193.7531 106.4732  1.00271787 26463
HISPASAT 30W-6          
1 43228U 18023A   25137.41781017 -.00000204  00000+0  00000+0 0  9995
2 43228   0.0454  37.3350 0006500  19.2225 299.2335  1.00272981 26525
SUPERBIRD-B3            
1 43271U 18033A   25136.83881314 -.00000080  00000+0  00000+0 0  9992
2 43271   0.0108 284.0232 0001196 152.4775 262.2498  1.00270739 26085
HYLAS 4                 
1 43272U 18033B   25137.29979604 -.00000221  00000+0  00000+0 0  9991
2 43272   0.0520 272.6837 0002068 158.3799 238.5183  1.00276814 26096
IRNSS-1I                
1 43286U 18035A   25133.94628006  .00000096  00000+0  00000+0 0  9992
2 43286  29.0671  80.4178 0018404 189.8191 357.4476  1.00269722 26072
USA 283                 
1 43339U 18036A   25134.47737341 -.00000301  00000+0  00000+0 0  9994
2 43339   0.0161 316.2777 0000072  23.9110 198.2300  1.00270043  3407
COSMOS 2526             
1 43432U 18037A   25137.47461128 -.00000333  00000+0  00000+0 0  9994
2 43432   0.0125 115.3270 0000254 349.7576  69.2631  1.00269685 25996
APSTAR-6C               
1 43450U 18041A   25136.83325279 -.00000305  00000+0  00000+0 0  9993
2 43450   0.0390  19.8826 0000657 314.6294 334.2848  1.00269658 25838
BANGABANDHUSAT-1        
1 43463U 18044A   25137.22545027 -.00000350  00000+0  00000+0 0  9999
2 43463   0.0121 300.3198 0002491 121.5162  13.6104  1.00271692 25767
SES-12                  
1 43488U 18049A   25136.68277311 -.00000256  00000+0  00000+0 0  9993
2 43488   0.0377  55.8347 0000742 257.7116 261.9102  1.00269457 25440
FENGYUN 2H              
1 43491U 18050A   25136.82239273 -.00000116  00000+0  00000+0 0  9995
2 43491   2.0092  83.7492 0000456  84.0560  82.3369  1.00270245 25466
BEIDOU-2 IGSO-7         
1 43539U 18057A   25135.84735734 -.00000060  00000+0  00000+0 0  9997
2 43539  55.1607 166.5000 0088973 236.3168 249.1466  1.00266943 25147
TELSTAR 19V             
1 43562U 18059A   25137.15118244 -.00000267  00000+0  00000+0 0  9991
2 43562   0.0354 144.9748 0002468 314.2015 127.3572  1.00270139 25194
TELKOM 4 (MERAH PUTIH)  
1 43587U 18064A   25137.32785840 -.00000332  00000+0  00000+0 0  9998
2 43587   0.0138 334.3881 0001402  88.3435  38.5790  1.00272115 24893
TELSTAR 18V             
1 43611U 18069A   25137.47660953 -.00000281  00000+0  00000+0 0  9997
2 43611   0.0135 284.1219 0002156 138.9255 121.9597  1.00272529 24648
AZERSPACE 2 (IS-38)     
1 43632U 18074A   25136.73586360  .00000150  00000+0  00000+0 0  9997
2 43632   0.0166 293.2884 0001638 129.3660 122.0655  1.00269737 24477
HORIZONS-3E             
1 43633U 18074B   25136.75461440 -.00000017  00000+0  00000+0 0  9994
2 43633   0.0397 146.8780 0000393 213.1842 315.3184  1.00271889 24366
AEHF-4 (USA 288)        
1 43651U 18079A   25136.86479037 -.00000263  00000+0  00000+0 0  9995
2 43651   1.5000 343.4947 0049371   7.7410 127.2708  1.00277394 24325
BEIDOU-3 G1             
1 43683U 18085A   25135.62074543 -.00000265  00000+0  00000+0 0  9995
2 43683   3.0254  98.8918 0004989  11.3655 126.6744  1.00265207 24070
GSAT-29                 
1 43698U 18089A   25137.24600015  .00000098  00000+0  00000+0 0  9997
2 43698   0.0161 268.8551 0003544 142.1354 327.8597  1.00268390 23859
ES'HAIL 2               
1 43700U 18090A   25136.88324264  .00000157  00000+0  00000+0 0  9997
2 43700   0.0158 286.3296 0002115 162.7520 129.5459  1.00269105 23709
GEO-KOMPSAT-2A          
1 43823U 18100A   25137.26048890 -.00000331  00000+0  00000+0 0  9991
2 43823   0.0546 106.4939 0002384 329.0504  21.7146  1.00271662 23695
GSAT-11                 
1 43824U 18100B   25137.17833601 -.00000065  00000+0  00000+0 0  9998
2 43824   0.0120 275.8103 0008259 160.7548 296.7653  1.00271949 23665
GSAT-7A                 
1 43864U 18105A   25136.85989146  .00000039  00000+0  00000+0 0  9997
2 43864   0.0756 259.1844 0003230 142.2165 205.7671  1.00272547 23479
COSMOS 2533             
1 43867U 18107A   25136.72475355 -.00000025  00000+0  00000+0 0  9996
2 43867   0.0403 107.0157 0000816 339.4289 119.1451  1.00269056 23467
